{
  "type": "FeatureCollection",
  "features": [
    {
      "type": "Feature",
      "properties": { "name": "Africa (simplified)" },
      "geometry": {
        "type": "Polygon",
        "coordinates": [
          [
            [-17.5, 32.5],
            [-10.0, 37.0],
            [5.0, 37.5],
            [12.0, 37.0],
            [25.0, 31.5],
            [32.0, 31.0],
            [40.0, 28.0],
            [43.0, 20.0],
            [50.0, 12.0],
            [51.0, 2.0],
            [48.0, -4.0],
            [42.0, -12.0],
            [38.0, -18.0],
            [32.0, -26.0],
            [28.0, -33.0],
            [18.0, -34.5],
            [12.0, -33.0],
            [5.0, -28.0],
            [-2.0, -22.0],
            [-8.0, -15.0],
            [-12.0, -5.0],
            [-17.0, 5.0],
            [-17.5, 15.0],
            [-17.0, 25.0],
            [-17.5, 32.5]
          ]
        ]
      }
    }
  ]
}
