{"type":"FeatureCollection","features":[{"type":"Feature","properties":{"name":"Tanzania"},"geometry":{"type":"Polygon","coordinates":[[[33.9,-0.95],[34.07,-1.06],[37.7,-3.1],[37.77,-3.68],[39.2,-4.68],[38.74,-5.91],[38.8,-6.48],[39.44,-6.84],[39.47,-7.1],[39.19,-7.7],[39.25,-8.01],[39.19,-8.49],[39.54,-9.11],[39.95,-10.1],[40.32,-10.32],[40.32,-10.32],[39.52,-10.9],[38.43,-11.29],[37.83,-11.27],[37.47,-11.57],[36.78,-11.59],[36.51,-11.72],[35.31,-11.44],[34.56,-11.52],[34.28,-10.16],[33.94,-9.69],[33.74,-9.42],[32.76,-9.23],[32.19,-8.93],[31.56,-8.76],[31.16,-8.59],[30.74,-8.34],[30.74,-8.34],[30.2,-7.08],[29.62,-6.52],[29.42,-5.94],[29.52,-5.42],[29.34,-4.5],[29.75,-4.45],[30.12,-4.09],[30.51,-3.57],[30.75,-3.36],[30.74,-3.03],[30.53,-2.81],[30.47,-2.41],[30.47,-2.41],[30.76,-2.29],[30.82,-1.7],[30.42,-1.13],[30.77,-1.01],[31.87,-1.03],[33.9,-0.95]]]}},{"type":"Feature","properties":{"name":"Dem. Rep. Congo"},"geometry":{"type":"Polygon","coordinates":[[[29.34,-4.5],[29.52,-5.42],[29.42,-5.94],[29.62,-6.52],[30.2,-7.08],[30.74,-8.34],[30.74,-8.34],[30.35,-8.24],[29.0,-8.41],[28.73,-8.53],[28.45,-9.16],[28.67,-9.61],[28.5,-10.79],[28.37,-11.79],[28.64,-11.97],[29.34,-12.36],[29.62,-12.18],[29.7,-13.26],[28.93,-13.25],[28.52,-12.7],[28.16,-12.27],[27.39,-12.13],[27.16,-11.61],[26.55,-11.92],[25.75,-11.78],[25.42,-11.33],[24.78,-11.24],[24.31,-11.26],[24.26,-10.95],[23.91,-10.93],[23.46,-10.87],[22.84,-11.02],[22.4,-10.99],[22.16,-11.08],[22.21,-9.89],[21.88,-9.52],[21.8,-8.91],[21.95,-8.31],[21.75,-7.92],[21.73,-7.29],[20.51,-7.3],[20.6,-6.94],[20.09,-6.94],[20.04,-7.12],[19.42,-7.16],[19.17,-7.74],[19.02,-7.99],[18.46,-7.85],[18.13,-7.99],[17.47,-8.07],[17.09,-7.55],[16.86,-7.22],[16.57,-6.62],[16.33,-5.88],[13.38,-5.86],[13.02,-5.98],[12.74,-5.97],[12.32,-6.1],[12.18,-5.79],[12.44,-5.68],[12.47,-5.25],[12.63,-4.99],[13.0,-4.78],[13.26,-4.88],[13.6,-4.5],[14.14,-4.51],[14.21,-4.79],[14.58,-4.97],[15.17,-4.34],[15.75,-3.86],[16.01,-3.54],[15.97,-2.71],[16.41,-1.74],[16.87,-1.23],[17.52,-0.74],[17.64,-0.42],[17.66,-0.06],[17.83,0.29],[17.77,0.86],[17.9,1.74],[18.09,2.37],[18.39,2.9],[18.45,3.5],[18.54,4.2],[18.93,4.71],[19.47,5.03],[20.29,4.69],[20.93,4.32],[21.66,4.22],[22.41,4.03],[22.7,4.63],[22.84,4.71],[23.3,4.61],[24.41,5.11],[24.81,4.9],[25.13,4.93],[25.28,5.17],[25.65,5.26],[26.4,5.15],[27.04,5.13],[27.37,5.23],[27.98,4.41],[28.43,4.29],[28.7,4.46],[29.16,4.39],[29.72,4.6],[29.95,4.17],[30.83,3.51],[30.83,3.51],[30.77,2.34],[31.17,2.2],[30.85,1.85],[30.47,1.58],[30.09,1.06],[29.88,0.6],[29.82,-0.21],[29.59,-0.59],[29.58,-1.34],[29.29,-1.62],[29.25,-2.22],[29.12,-2.29],[29.02,-2.84],[29.28,-3.29],[29.34,-4.5]]]}},{"type":"Feature","properties":{"name":"Somalia"},"geometry":{"type":"Polygon","coordinates":[[[41.59,-1.68],[40.99,-0.86],[40.98,2.78],[41.86,3.92],[42.13,4.23],[42.77,4.25],[43.66,4.96],[44.96,5.0],[47.79,8.0],[48.49,8.84],[48.94,9.45],[48.94,9.97],[48.94,10.98],[48.94,11.39],[48.95,11.41],[48.95,11.41],[49.27,11.43],[49.73,11.58],[50.26,11.68],[50.73,12.02],[51.11,12.02],[51.13,11.75],[51.04,11.17],[51.05,10.64],[50.83,10.28],[50.55,9.2],[50.07,8.08],[49.45,6.8],[48.59,5.34],[47.74,4.22],[46.56,2.86],[45.56,2.05],[44.07,1.05],[43.14,0.29],[42.04,-0.92],[41.81,-1.45],[41.59,-1.68]]]}},{"type":"Feature","properties":{"name":"Kenya"},"geometry":{"type":"Polygon","coordinates":[[[39.2,-4.68],[37.77,-3.68],[37.7,-3.1],[34.07,-1.06],[33.9,-0.95],[33.89,0.11],[34.18,0.52],[34.67,1.18],[35.04,1.91],[34.6,3.05],[34.48,3.56],[34.01,4.25],[34.62,4.85],[35.3,5.51],[35.82,5.34],[35.82,4.78],[36.16,4.45],[36.86,4.45],[38.12,3.6],[38.44,3.59],[38.67,3.62],[38.89,3.5],[39.56,3.42],[39.85,3.84],[40.77,4.26],[41.17,3.92],[41.86,3.92],[40.98,2.78],[40.99,-0.86],[41.59,-1.68],[40.88,-2.08],[40.64,-2.5],[40.26,-2.57],[40.12,-3.28],[39.8,-3.68],[39.6,-4.35],[39.2,-4.68]]]}},{"type":"Feature","properties":{"name":"Sudan"},"geometry":{"type":"Polygon","coordinates":[[[24.57,8.23],[23.81,8.67],[23.46,8.95],[23.39,9.27],[23.56,9.68],[23.55,10.09],[22.98,10.71],[22.86,11.14],[22.88,11.38],[22.51,11.68],[22.5,12.26],[22.29,12.65],[21.94,12.59],[22.04,12.96],[22.3,13.37],[22.18,13.79],[22.51,14.09],[22.3,14.33],[22.57,14.94],[23.02,15.68],[23.89,15.61],[23.84,19.58],[23.85,20],[25,20.0],[25,22],[29.02,22],[32.9,22],[36.87,22],[37.19,21.02],[36.97,20.84],[37.11,19.81],[37.48,18.61],[37.86,18.37],[38.41,18.0],[37.9,17.43],[37.17,17.26],[36.85,16.96],[36.75,16.29],[36.32,14.82],[36.43,14.42],[36.27,13.56],[35.86,12.58],[35.26,12.08],[34.83,11.32],[34.73,10.91],[34.26,10.63],[33.96,9.58],[33.97,8.68],[33.96,9.46],[33.82,9.48],[33.84,9.98],[33.72,10.33],[33.21,10.72],[33.09,11.44],[33.21,12.18],[32.74,12.25],[32.67,12.02],[32.07,11.97],[32.31,11.68],[32.4,11.08],[31.85,10.53],[31.35,9.81],[30.84,9.71],[30.0,10.29],[29.62,10.08],[29.52,9.79],[29.0,9.6],[28.97,9.4],[27.97,9.4],[27.83,9.6],[27.11,9.64],[26.75,9.47],[26.48,9.55],[25.96,10.14],[25.79,10.41],[25.07,10.27],[24.79,9.81],[24.54,8.92],[24.19,8.73],[23.89,8.62],[24.57,8.23]]]}},{"type":"Feature","properties":{"name":"South Africa"},"geometry":{"type":"Polygon","coordinates":[[[16.34,-28.58],[16.82,-28.08],[17.22,-28.36],[17.39,-28.78],[17.84,-28.86],[18.46,-29.05],[19.0,-28.97],[19.89,-28.46],[19.9,-24.77],[20.17,-24.92],[20.76,-25.87],[20.67,-26.48],[20.89,-26.83],[21.61,-26.73],[22.11,-26.28],[22.58,-25.98],[22.82,-25.5],[23.31,-25.27],[23.73,-25.39],[24.21,-25.67],[25.03,-25.72],[25.66,-25.49],[25.77,-25.17],[25.94,-24.7],[26.49,-24.62],[26.79,-24.24],[27.12,-23.57],[28.02,-22.83],[29.43,-22.09],[29.84,-22.1],[30.32,-22.27],[30.66,-22.15],[31.19,-22.25],[31.67,-23.66],[31.93,-24.37],[31.75,-25.48],[31.84,-25.84],[31.33,-25.66],[31.04,-25.73],[30.95,-26.02],[30.68,-26.4],[30.69,-26.74],[31.28,-27.29],[31.87,-27.18],[32.07,-26.73],[32.83,-26.74],[32.58,-27.47],[32.46,-28.3],[32.2,-28.75],[31.52,-29.26],[31.33,-29.4],[30.9,-29.91],[30.62,-30.42],[30.06,-31.14],[28.93,-32.17],[28.22,-32.77],[27.46,-33.23],[26.42,-33.61],[25.91,-33.67],[25.78,-33.94],[25.17,-33.8],[24.68,-33.99],[23.59,-33.79],[22.99,-33.92],[22.57,-33.86],[21.54,-34.26],[20.69,-34.42],[20.07,-34.8],[19.62,-34.82],[19.19,-34.46],[18.86,-34.44],[18.42,-34.0],[18.38,-34.14],[18.24,-33.87],[18.25,-33.28],[17.93,-32.61],[18.25,-32.43],[18.22,-31.66],[17.57,-30.73],[17.06,-29.88],[17.06,-29.88],[16.34,-28.58]],[[28.98,-28.96],[28.54,-28.65],[28.07,-28.85],[27.53,-29.24],[27.0,-29.88],[27.75,-30.65],[28.11,-30.55],[28.29,-30.23],[28.85,-30.07],[29.02,-29.74],[29.33,-29.26],[28.98,-28.96]]]}},{"type":"Feature","properties":{"name":"Lesotho"},"geometry":{"type":"Polygon","coordinates":[[[28.98,-28.96],[29.33,-29.26],[29.02,-29.74],[28.85,-30.07],[28.29,-30.23],[28.11,-30.55],[27.75,-30.65],[27.0,-29.88],[27.53,-29.24],[28.07,-28.85],[28.54,-28.65],[28.98,-28.96]]]}},{"type":"Feature","properties":{"name":"Zimbabwe"},"geometry":{"type":"Polygon","coordinates":[[[31.19,-22.25],[30.66,-22.15],[30.32,-22.27],[29.84,-22.1],[29.43,-22.09],[28.79,-21.64],[28.02,-21.49],[27.73,-20.85],[27.72,-20.5],[27.3,-20.39],[26.16,-19.29],[25.85,-18.71],[25.65,-18.54],[25.26,-17.74],[26.38,-17.85],[26.71,-17.96],[27.04,-17.94],[27.6,-17.29],[28.47,-16.47],[28.83,-16.39],[28.95,-16.04],[29.52,-15.64],[30.27,-15.51],[30.34,-15.88],[31.17,-15.86],[31.64,-16.07],[31.85,-16.32],[32.33,-16.39],[32.85,-16.71],[32.85,-17.98],[32.65,-18.67],[32.61,-19.42],[32.77,-19.72],[32.66,-20.3],[32.51,-20.4],[32.24,-21.12],[31.19,-22.25]]]}},{"type":"Feature","properties":{"name":"Botswana"},"geometry":{"type":"Polygon","coordinates":[[[29.43,-22.09],[28.02,-22.83],[27.12,-23.57],[26.79,-24.24],[26.49,-24.62],[25.94,-24.7],[25.77,-25.17],[25.66,-25.49],[25.03,-25.72],[24.21,-25.67],[23.73,-25.39],[23.31,-25.27],[22.82,-25.5],[22.58,-25.98],[22.11,-26.28],[21.61,-26.73],[20.89,-26.83],[20.67,-26.48],[20.76,-25.87],[20.17,-24.92],[19.9,-24.77],[19.9,-21.85],[20.88,-21.81],[20.91,-18.25],[21.66,-18.22],[23.2,-17.87],[23.58,-18.28],[24.22,-17.89],[24.52,-17.89],[25.08,-17.66],[25.26,-17.74],[25.65,-18.54],[25.85,-18.71],[26.16,-19.29],[27.3,-20.39],[27.72,-20.5],[27.73,-20.85],[28.02,-21.49],[28.79,-21.64],[29.43,-22.09]]]}},{"type":"Feature","properties":{"name":"Namibia"},"geometry":{"type":"Polygon","coordinates":[[[19.9,-24.77],[19.89,-28.46],[19.0,-28.97],[18.46,-29.05],[17.84,-28.86],[17.39,-28.78],[17.22,-28.36],[16.82,-28.08],[16.34,-28.58],[15.6,-27.82],[15.21,-27.09],[14.99,-26.12],[14.74,-25.39],[14.41,-23.85],[14.39,-22.66],[14.26,-22.11],[13.87,-21.7],[13.35,-20.87],[12.83,-19.67],[12.61,-19.05],[11.79,-18.07],[11.73,-17.3],[12.22,-17.11],[12.81,-16.94],[13.46,-16.97],[14.06,-17.42],[14.21,-17.35],[18.26,-17.31],[18.96,-17.79],[21.38,-17.93],[23.22,-17.52],[24.03,-17.3],[24.68,-17.35],[25.08,-17.58],[25.08,-17.66],[24.52,-17.89],[24.22,-17.89],[23.58,-18.28],[23.2,-17.87],[21.66,-18.22],[20.91,-18.25],[20.88,-21.81],[19.9,-21.85],[19.9,-24.77]]]}},{"type":"Feature","properties":{"name":"Congo"},"geometry":{"type":"Polygon","coordinates":[[[18.45,3.5],[18.39,2.9],[18.09,2.37],[17.9,1.74],[17.77,0.86],[17.83,0.29],[17.66,-0.06],[17.64,-0.42],[17.52,-0.74],[16.87,-1.23],[16.41,-1.74],[15.97,-2.71],[16.01,-3.54],[15.75,-3.86],[15.17,-4.34],[14.58,-4.97],[14.21,-4.79],[14.14,-4.51],[13.6,-4.5],[13.26,-4.88],[13.0,-4.78],[12.62,-4.44],[12.32,-4.61],[11.91,-5.04],[11.09,-3.98],[11.86,-3.43],[11.48,-2.77],[11.82,-2.51],[12.5,-2.39],[12.58,-1.95],[13.11,-2.43],[13.99,-2.47],[14.3,-2.0],[14.43,-1.33],[14.32,-0.55],[13.84,0.04],[14.28,1.2],[14.03,1.4],[13.28,1.31],[13.0,1.83],[13.08,2.27],[14.34,2.23],[15.15,1.96],[15.94,1.73],[16.01,2.27],[16.54,3.2],[17.13,3.73],[17.81,3.56],[18.45,3.5]]]}},{"type":"Feature","properties":{"name":"Gabon"},"geometry":{"type":"Polygon","coordinates":[[[11.28,2.26],[11.75,2.33],[12.36,2.19],[12.95,2.32],[13.08,2.27],[13.0,1.83],[13.28,1.31],[14.03,1.4],[14.28,1.2],[13.84,0.04],[14.32,-0.55],[14.43,-1.33],[14.3,-2.0],[13.99,-2.47],[13.11,-2.43],[12.58,-1.95],[12.5,-2.39],[11.82,-2.51],[11.48,-2.77],[11.86,-3.43],[11.09,-3.98],[10.07,-2.97],[9.41,-2.14],[8.8,-1.11],[8.83,-0.78],[9.05,-0.46],[9.29,0.27],[9.49,1.01],[9.83,1.07],[11.29,1.06],[11.28,2.26]]]}},{"type":"Feature","properties":{"name":"Zambia"},"geometry":{"type":"Polygon","coordinates":[[[30.74,-8.34],[31.16,-8.59],[31.56,-8.76],[32.19,-8.93],[32.76,-9.23],[33.23,-9.68],[33.49,-10.53],[33.32,-10.8],[33.11,-11.61],[33.31,-12.44],[32.99,-12.78],[32.69,-13.71],[33.21,-13.97],[30.18,-14.8],[30.27,-15.51],[29.52,-15.64],[28.95,-16.04],[28.83,-16.39],[28.47,-16.47],[27.6,-17.29],[27.04,-17.94],[26.71,-17.96],[26.38,-17.85],[25.26,-17.74],[25.08,-17.66],[25.08,-17.58],[24.68,-17.35],[24.03,-17.3],[23.22,-17.52],[22.56,-16.9],[21.89,-16.08],[21.93,-12.9],[24.02,-12.91],[23.93,-12.57],[24.08,-12.19],[23.9,-11.72],[24.02,-11.24],[23.91,-10.93],[24.26,-10.95],[24.31,-11.26],[24.78,-11.24],[25.42,-11.33],[25.75,-11.78],[26.55,-11.92],[27.16,-11.61],[27.39,-12.13],[28.16,-12.27],[28.52,-12.7],[28.93,-13.25],[29.7,-13.26],[29.62,-12.18],[29.34,-12.36],[28.64,-11.97],[28.37,-11.79],[28.5,-10.79],[28.67,-9.61],[28.45,-9.16],[28.73,-8.53],[29.0,-8.41],[30.35,-8.24],[30.74,-8.34]]]}},{"type":"Feature","properties":{"name":"Malawi"},"geometry":{"type":"Polygon","coordinates":[[[32.76,-9.23],[33.74,-9.42],[33.94,-9.69],[34.28,-10.16],[34.56,-11.52],[34.28,-12.28],[34.56,-13.58],[34.91,-13.57],[35.27,-13.89],[35.69,-14.61],[35.77,-15.9],[35.34,-16.11],[35.03,-16.8],[34.38,-16.18],[34.31,-15.48],[34.52,-15.01],[34.46,-14.61],[34.06,-14.36],[33.79,-14.45],[33.21,-13.97],[32.69,-13.71],[32.99,-12.78],[33.31,-12.44],[33.11,-11.61],[33.32,-10.8],[33.49,-10.53],[33.23,-9.68],[32.76,-9.23]]]}},{"type":"Feature","properties":{"name":"Mozambique"},"geometry":{"type":"Polygon","coordinates":[[[34.56,-11.52],[35.31,-11.44],[36.51,-11.72],[36.78,-11.59],[37.47,-11.57],[37.83,-11.27],[38.43,-11.29],[39.52,-10.9],[40.32,-10.32],[40.32,-10.32],[40.32,-10.32],[40.48,-10.77],[40.44,-11.76],[40.56,-12.64],[40.6,-14.2],[40.78,-14.69],[40.48,-15.41],[40.09,-16.1],[39.45,-16.72],[38.54,-17.1],[37.41,-17.59],[36.28,-18.66],[35.9,-18.84],[35.2,-19.55],[34.79,-19.78],[34.7,-20.5],[35.18,-21.25],[35.37,-21.84],[35.39,-22.14],[35.56,-22.09],[35.53,-23.07],[35.37,-23.54],[35.61,-23.71],[35.46,-24.12],[35.04,-24.48],[34.22,-24.82],[33.01,-25.36],[32.57,-25.73],[32.66,-26.15],[32.92,-26.22],[32.83,-26.74],[32.07,-26.73],[31.99,-26.29],[31.84,-25.84],[31.75,-25.48],[31.93,-24.37],[31.67,-23.66],[31.19,-22.25],[32.24,-21.12],[32.51,-20.4],[32.66,-20.3],[32.77,-19.72],[32.61,-19.42],[32.65,-18.67],[32.85,-17.98],[32.85,-16.71],[32.33,-16.39],[31.85,-16.32],[31.64,-16.07],[31.17,-15.86],[30.34,-15.88],[30.27,-15.51],[30.18,-14.8],[33.21,-13.97],[33.79,-14.45],[34.06,-14.36],[34.46,-14.61],[34.52,-15.01],[34.31,-15.48],[34.38,-16.18],[35.03,-16.8],[35.34,-16.11],[35.77,-15.9],[35.69,-14.61],[35.27,-13.89],[34.91,-13.57],[34.56,-13.58],[34.28,-12.28],[34.56,-11.52]]]}},{"type":"Feature","properties":{"name":"eSwatini"},"geometry":{"type":"Polygon","coordinates":[[[32.07,-26.73],[31.87,-27.18],[31.28,-27.29],[30.69,-26.74],[30.68,-26.4],[30.95,-26.02],[31.04,-25.73],[31.33,-25.66],[31.84,-25.84],[31.99,-26.29],[32.07,-26.73]]]}},{"type":"Feature","properties":{"name":"Angola"},"geometry":{"type":"MultiPolygon","coordinates":[[[[13.0,-4.78],[12.63,-4.99],[12.47,-5.25],[12.44,-5.68],[12.18,-5.79],[11.91,-5.04],[12.32,-4.61],[12.62,-4.44],[13.0,-4.78]]],[[[12.32,-6.1],[12.74,-5.97],[13.02,-5.98],[13.38,-5.86],[16.33,-5.88],[16.57,-6.62],[16.86,-7.22],[17.09,-7.55],[17.47,-8.07],[18.13,-7.99],[18.46,-7.85],[19.02,-7.99],[19.17,-7.74],[19.42,-7.16],[20.04,-7.12],[20.09,-6.94],[20.6,-6.94],[20.51,-7.3],[21.73,-7.29],[21.75,-7.92],[21.95,-8.31],[21.8,-8.91],[21.88,-9.52],[22.21,-9.89],[22.16,-11.08],[22.4,-10.99],[22.84,-11.02],[23.46,-10.87],[23.91,-10.93],[24.02,-11.24],[23.9,-11.72],[24.08,-12.19],[23.93,-12.57],[24.02,-12.91],[21.93,-12.9],[21.89,-16.08],[22.56,-16.9],[23.22,-17.52],[21.38,-17.93],[18.96,-17.79],[18.26,-17.31],[14.21,-17.35],[14.06,-17.42],[13.46,-16.97],[12.81,-16.94],[12.22,-17.11],[11.73,-17.3],[11.64,-16.67],[11.78,-15.79],[12.12,-14.88],[12.18,-14.45],[12.5,-13.55],[12.74,-13.14],[13.31,-12.48],[13.63,-12.04],[13.74,-11.3],[13.69,-10.73],[13.39,-10.37],[13.12,-9.77],[12.88,-9.17],[12.93,-8.96],[13.24,-8.56],[12.93,-7.6],[12.73,-6.93],[12.23,-6.29],[12.32,-6.1]]]]}},{"type":"Feature","properties":{"name":"Burundi"},"geometry":{"type":"Polygon","coordinates":[[[30.47,-2.41],[30.53,-2.81],[30.74,-3.03],[30.75,-3.36],[30.51,-3.57],[30.12,-4.09],[29.75,-4.45],[29.34,-4.5],[29.28,-3.29],[29.02,-2.84],[29.63,-2.92],[29.94,-2.35],[30.47,-2.41]]]}},{"type":"Feature","properties":{"name":"Madagascar"},"geometry":{"type":"Polygon","coordinates":[[[49.54,-12.47],[49.81,-12.9],[50.06,-13.56],[50.22,-14.76],[50.48,-15.23],[50.38,-15.71],[50.2,-16.0],[49.86,-15.41],[49.67,-15.71],[49.86,-16.45],[49.77,-16.88],[49.5,-17.11],[49.44,-17.95],[49.04,-19.12],[48.55,-20.5],[47.93,-22.39],[47.55,-23.78],[47.1,-24.94],[46.28,-25.18],[45.41,-25.6],[44.83,-25.35],[44.04,-24.99],[43.76,-24.46],[43.7,-23.57],[43.35,-22.78],[43.25,-22.06],[43.43,-21.34],[43.89,-21.16],[43.9,-20.83],[44.37,-20.07],[44.46,-19.44],[44.23,-18.96],[44.04,-18.33],[43.96,-17.41],[44.31,-16.85],[44.45,-16.22],[44.94,-16.18],[45.5,-15.97],[45.87,-15.79],[46.31,-15.78],[46.88,-15.21],[47.71,-14.59],[48.01,-14.09],[47.87,-13.66],[48.29,-13.78],[48.85,-13.09],[48.86,-12.49],[49.19,-12.04],[49.54,-12.47]]]}},{"type":"Feature","properties":{"name":"Ethiopia"},"geometry":{"type":"Polygon","coordinates":[[[47.79,8.0],[44.96,5.0],[43.66,4.96],[42.77,4.25],[42.13,4.23],[41.86,3.92],[41.17,3.92],[40.77,4.26],[39.85,3.84],[39.56,3.42],[38.89,3.5],[38.67,3.62],[38.44,3.59],[38.12,3.6],[36.86,4.45],[36.16,4.45],[35.82,4.78],[35.82,5.34],[35.3,5.51],[34.71,6.59],[34.25,6.83],[34.08,7.23],[33.57,7.71],[32.95,7.78],[33.29,8.35],[33.83,8.38],[33.97,8.68],[33.96,9.58],[34.26,10.63],[34.73,10.91],[34.83,11.32],[35.26,12.08],[35.86,12.58],[36.27,13.56],[36.43,14.42],[37.59,14.21],[37.91,14.96],[38.51,14.51],[39.1,14.74],[39.34,14.53],[40.03,14.52],[40.9,14.12],[41.16,13.77],[41.6,13.45],[42.01,12.87],[42.35,12.54],[42,12.1],[41.66,11.63],[41.74,11.36],[41.76,11.05],[42.31,11.03],[42.55,11.11],[42.78,10.93],[42.56,10.57],[42.93,10.02],[43.3,9.54],[43.68,9.18],[46.95,8.0],[47.79,8.0]]]}},{"type":"Feature","properties":{"name":"Uganda"},"geometry":{"type":"Polygon","coordinates":[[[33.9,-0.95],[31.87,-1.03],[30.77,-1.01],[30.42,-1.13],[29.82,-1.44],[29.58,-1.34],[29.59,-0.59],[29.82,-0.21],[29.88,0.6],[30.09,1.06],[30.47,1.58],[30.85,1.85],[31.17,2.2],[30.77,2.34],[30.83,3.51],[30.83,3.51],[31.25,3.78],[31.88,3.56],[32.69,3.79],[33.39,3.79],[34.01,4.25],[34.48,3.56],[34.6,3.05],[35.04,1.91],[34.67,1.18],[34.18,0.52],[33.89,0.11],[33.9,-0.95]]]}},{"type":"Feature","properties":{"name":"Rwanda"},"geometry":{"type":"Polygon","coordinates":[[[30.42,-1.13],[30.82,-1.7],[30.76,-2.29],[30.47,-2.41],[30.47,-2.41],[29.94,-2.35],[29.63,-2.92],[29.02,-2.84],[29.12,-2.29],[29.25,-2.22],[29.29,-1.62],[29.58,-1.34],[29.82,-1.44],[30.42,-1.13]]]}},{"type":"Feature","properties":{"name":"S. Sudan"},"geometry":{"type":"Polygon","coordinates":[[[30.83,3.51],[29.95,4.17],[29.72,4.6],[29.16,4.39],[28.7,4.46],[28.43,4.29],[27.98,4.41],[27.37,5.23],[27.21,5.55],[26.47,5.95],[26.21,6.55],[25.8,6.98],[25.12,7.5],[25.11,7.83],[24.57,8.23],[23.89,8.62],[24.19,8.73],[24.54,8.92],[24.79,9.81],[25.07,10.27],[25.79,10.41],[25.96,10.14],[26.48,9.55],[26.75,9.47],[27.11,9.64],[27.83,9.6],[27.97,9.4],[28.97,9.4],[29.0,9.6],[29.52,9.79],[29.62,10.08],[30.0,10.29],[30.84,9.71],[31.35,9.81],[31.85,10.53],[32.4,11.08],[32.31,11.68],[32.07,11.97],[32.67,12.02],[32.74,12.25],[33.21,12.18],[33.09,11.44],[33.21,10.72],[33.72,10.33],[33.84,9.98],[33.82,9.48],[33.96,9.46],[33.97,8.68],[33.83,8.38],[33.29,8.35],[32.95,7.78],[33.57,7.71],[34.08,7.23],[34.25,6.83],[34.71,6.59],[35.3,5.51],[34.62,4.85],[34.01,4.25],[33.39,3.79],[32.69,3.79],[31.88,3.56],[31.25,3.78],[30.83,3.51]]]}}]}